$$SOE
2461295.500000000, A.D. 2026-Sep-12 00:00:00.0000, -1.966021708717246E+08, -2.778600565488626E+08, -1.370459793977548E+07,
2461302.500000000, A.D. 2026-Sep-19 00:00:00.0000, -1.859070558321668E+08, -2.832882138733899E+08, -1.475972677870312E+07,
2461309.500000000, A.D. 2026-Sep-26 00:00:00.0000, -1.749806594571891E+08, -2.883639038241996E+08, -1.579648815044233E+07,
2461316.500000000, A.D. 2026-Oct-03 00:00:00.0000, -1.638336799418669E+08, -2.930760385249572E+08, -1.681333041211970E+07,
2461323.500000000, A.D. 2026-Oct-10 00:00:00.0000, -1.524774152448691E+08, -2.974137488357926E+08, -1.780868859754108E+07,
2461330.500000000, A.D. 2026-Oct-17 00:00:00.0000, -1.409237711887379E+08, -3.013664181758358E+08, -1.878098694668251E+07,
2461337.500000000, A.D. 2026-Oct-24 00:00:00.0000, -1.291852678148841E+08, -3.049237183364199E+08, -1.972864170409678E+07,
2461344.500000000, A.D. 2026-Oct-31 00:00:00.0000, -1.172750436645451E+08, -3.080756473081844E+08, -2.065006420925876E+07,
2461351.500000000, A.D. 2026-Nov-07 00:00:00.0000, -1.052068574071378E+08, -3.108125689800123E+08, -2.154366431069686E+07,
2461358.500000000, A.D. 2026-Nov-14 00:00:00.0000, -9.299508636835158E+07, -3.131252537279565E+08, -2.240785405464107E+07,
2461365.500000000, A.D. 2026-Nov-21 00:00:00.0000, -8.065472351799959E+07, -3.150049190879380E+08, -2.324105142872165E+07,
2461372.500000000, A.D. 2026-Nov-28 00:00:00.0000, -6.820137366073596E+07, -3.164432733643706E+08, -2.404168431487559E+07,
2461379.500000000, A.D. 2026-Dec-05 00:00:00.0000, -5.565124495678855E+07, -3.174325626459703E+08, -2.480819503437871E+07,
2461386.500000000, A.D. 2026-Dec-12 00:00:00.0000, -4.302113536231866E+07, -3.179656179006190E+08, -2.553904523992370E+07,
2461393.500000000, A.D. 2026-Dec-19 00:00:00.0000, -3.032841564186217E+07, -3.180359018880723E+08, -2.623272097122599E+07,
2461400.500000000, A.D. 2026-Dec-26 00:00:00.0000, -1.759100887503724E+07, -3.176375564658355E+08, -2.688773791802163E+07,
2461407.500000000, A.D. 2027-Jan-02 00:00:00.0000, -4.827365982038527E+06, -3.167654501486426E+08, -2.750264691294590E+07,
2461414.500000000, A.D. 2027-Jan-09 00:00:00.0000, 7.943563023189986E+06, -3.154152255328035E+08, -2.807603964030883E+07,
2461421.500000000, A.D. 2027-Jan-16 00:00:00.0000, 2.070236223181544E+07, -3.135833461729112E+08, -2.860655453573804E+07,
2461428.500000000, A.D. 2027-Jan-23 00:00:00.0000, 3.342918764459654E+07, -3.112671425173341E+08, -2.909288285218787E+07,
2461435.500000000, A.D. 2027-Jan-30 00:00:00.0000, 4.610380983182767E+07, -3.084648564901597E+08, -2.953377487664498E+07,
2461442.500000000, A.D. 2027-Feb-06 00:00:00.0000, 5.870566188432939E+07, -3.051756838933169E+08, -2.992804626676534E+07,
2461449.500000000, A.D. 2027-Feb-13 00:00:00.0000, 7.121389215087511E+07, -3.013998129006153E+08, -3.027458431866191E+07,
2461456.500000000, A.D. 2027-Feb-20 00:00:00.0000, 8.360741929446900E+07, -2.971384589089475E+08, -3.057235396215519E+07,
2461463.500000000, A.D. 2027-Feb-27 00:00:00.0000, 9.586499089795516E+07, -2.923938984259337E+08, -3.082040381869948E+07,
2461470.500000000, A.D. 2027-Mar-06 00:00:00.0000, 1.079652484068626E+08, -2.871694995431498E+08, -3.101787238338386E+07,
2461477.500000000, A.D. 2027-Mar-13 00:00:00.0000, 1.198867965091116E+08, -2.814697464321365E+08, -3.116399395595692E+07,
2461484.500000000, A.D. 2027-Mar-20 00:00:00.0000, 1.316082754508793E+08, -2.753002582052600E+08, -3.125810422269769E+07,
2461491.500000000, A.D. 2027-Mar-27 00:00:00.0000, 1.431084360493528E+08, -2.686678022297702E+08, -3.129964548873967E+07,
2461498.500000000, A.D. 2027-Apr-03 00:00:00.0000, 1.543662170941330E+08, -2.615803015258349E+08, -3.128817151935323E+07,
2461505.500000000, A.D. 2027-Apr-10 00:00:00.0000, 1.653608246176953E+08, -2.540468358597835E+08, -3.122335192987595E+07,
2461512.500000000, A.D. 2027-Apr-17 00:00:00.0000, 1.760718124114074E+08, -2.460776362350953E+08, -3.110497606371592E+07,
2461519.500000000, A.D. 2027-Apr-24 00:00:00.0000, 1.864791631727414E+08, -2.376840725906650E+08, -3.093295630942342E+07,
2461526.500000000, A.D. 2027-May-01 00:00:00.0000, 1.965633698644805E+08, -2.288786345048587E+08, -3.070733082748322E+07,
2461533.500000000, A.D. 2027-May-08 00:00:00.0000, 2.063055168587229E+08, -2.196749040872868E+08, -3.042826560928696E+07,
2461540.500000000, A.D. 2027-May-15 00:00:00.0000, 2.156873586148273E+08, -2.100875201450781E+08, -3.009605561776239E+07,
2461547.500000000, A.D. 2027-May-22 00:00:00.0000, 2.246913935567176E+08, -2.001321363527332E+08, -2.971112504959722E+07,
2461554.500000000, A.D. 2027-May-29 00:00:00.0000, 2.333009357369205E+08, -1.898253751196379E+08, -2.927402712511926E+07,
2461561.500000000, A.D. 2027-Jun-05 00:00:00.0000, 2.415001844294809E+08, -1.791847743417929E+08, -2.878544321806109E+07,
2461568.500000000, A.D. 2027-Jun-12 00:00:00.0000, 2.492742889417989E+08, -1.682287270167466E+08, -2.824618110292327E+07,
2461575.500000000, A.D. 2027-Jun-19 00:00:00.0000, 2.566094076644364E+08, -1.569764151534914E+08, -2.765717237370004E+07,
2461582.500000000, A.D. 2027-Jun-26 00:00:00.0000, 2.634927610541261E+08, -1.454477388145825E+08, -2.701946909940845E+07,
2461589.500000000, A.D. 2027-Jul-03 00:00:00.0000, 2.699126781750988E+08, -1.336632409286129E+08, -2.633423975680015E+07,
2461596.500000000, A.D. 2027-Jul-10 00:00:00.0000, 2.758586364150195E+08, -1.216440285702355E+08, -2.560276448178327E+07,
2461603.500000000, A.D. 2027-Jul-17 00:00:00.0000, 2.813212940838317E+08, -1.094116914994834E+08, -2.482642969403645E+07,
2461610.500000000, A.D. 2027-Jul-24 00:00:00.0000, 2.862925158179625E+08, -9.698821880722611E+07, -2.400672217023529E+07,
2461617.500000000, A.D. 2027-Jul-31 00:00:00.0000, 2.907653910657795E+08, -8.439591422624451E+07, -2.314522264692453E+07,
2461624.500000000, A.D. 2027-Aug-07 00:00:00.0000, 2.947342454298943E+08, -7.165730975103599E+07, -2.224359890900726E+07,
2461631.500000000, A.D. 2027-Aug-14 00:00:00.0000, 2.981946426491435E+08, -5.879507861272818E+07, -2.130359824726535E+07,
2461638.500000000, A.D. 2027-Aug-21 00:00:00.0000, 3.011433780058839E+08, -4.583195174304718E+07, -2.032703969307321E+07,
2461645.500000000, A.D. 2027-Aug-28 00:00:00.0000, 3.035784668390079E+08, -3.279063724656337E+07, -1.931580632386759E+07,
2461652.500000000, A.D. 2027-Sep-04 00:00:00.0000, 3.054991273187445E+08, -1.969374105070248E+07, -1.827183740384348E+07,
2461659.500000000, A.D. 2027-Sep-11 00:00:00.0000, 3.069057564995698E+08, -6.563690011654762E+06, -1.719712036197821E+07,
2461666.500000000, A.D. 2027-Sep-18 00:00:00.0000, 3.077999002538838E+08, 6.577341321845771E+06, -1.609368274575686E+07,
2461673.500000000, A.D. 2027-Sep-25 00:00:00.0000, 3.081842178301888E+08, 1.970749973050939E+07, -1.496358424673282E+07,
2461680.500000000, A.D. 2027-Oct-02 00:00:00.0000, 3.080624416603517E+08, 3.280531775992865E+07, -1.380890886653625E+07,
2461687.500000000, A.D. 2027-Oct-09 00:00:00.0000, 3.074393330138865E+08, 4.584977324758440E+07, -1.263175728479870E+07,
2461694.500000000, A.D. 2027-Oct-16 00:00:00.0000, 3.063206341571610E+08, 5.882034365118393E+07, -1.143423949339264E+07,
2461701.500000000, A.D. 2027-Oct-23 00:00:00.0000, 3.047130178824124E+08, 7.169705501286484E+07, -1.021846777021252E+07,
2461708.500000000, A.D. 2027-Oct-30 00:00:00.0000, 3.026240353787769E+08, 8.446052607835996E+07, -8.986550019651968E+06,
2461715.500000000, A.D. 2027-Nov-06 00:00:00.0000, 3.000620618615153E+08, 9.709200868091781E+07, -7.740583315306630E+06,
2461722.500000000, A.D. 2027-Nov-13 00:00:00.0000, 2.970362385465720E+08, 1.095734223606986E+08, -6.482647659068786E+06,
2461729.500000000, A.D. 2027-Nov-20 00:00:00.0000, 2.935564144136570E+08, 1.218873811238066E+08, -5.214800421913810E+06,
2461736.500000000, A.D. 2027-Nov-27 00:00:00.0000, 2.896330898624540E+08, 1.340172154459620E+08, -3.939071385919407E+06,
2461743.500000000, A.D. 2027-Dec-04 00:00:00.0000, 2.852773606863180E+08, 1.459469906267340E+08, -2.657458134061269E+06,
2461750.500000000, A.D. 2027-Dec-11 00:00:00.0000, 2.805008622234928E+08, 1.576615207604778E+08, -1.371921817638963E+06,
2461757.500000000, A.D. 2027-Dec-18 00:00:00.0000, 2.753157143283942E+08, 1.691463782446072E+08, -8.438335110754520E+04,
2461764.500000000, A.D. 2027-Dec-25 00:00:00.0000, 2.697344676382075E+08, 1.803878991061142E+08, 1.203279959064469E+06,
2461771.500000000, A.D. 2028-Jan-01 00:00:00.0000, 2.637700514559319E+08, 1.913731844608895E+08, 2.489237360289320E+06,
$$EOE